CCSDS_OMM_VERS = 2.0
CREATION_DATE  = 
ORIGINATOR     = 

OBJECT_NAME    = STARLINK-36332
OBJECT_ID      = 2026-034N
CENTER_NAME    = EARTH
REF_FRAME      = TEME
TIME_SYSTEM    = UTC
MEAN_ELEMENT_THEORY = SGP/SGP4

EPOCH          = 2026-03-10T13:04:02.811072
MEAN_MOTION    = 15.80978417
ECCENTRICITY   = .0000484
INCLINATION    = 53.1579
RA_OF_ASC_NODE = 206.9670
ARG_OF_PERICENTER = 78.0933
MEAN_ANOMALY   = 282.0144

EPHEMERIS_TYPE = 0
CLASSIFICATION_TYPE = U
NORAD_CAT_ID   = 67862
ELEMENT_SET_NO = 999
REV_AT_EPOCH   = 407
BSTAR          = .12871E-2
MEAN_MOTION_DOT = .262476E-2
MEAN_MOTION_DDOT = 0

CCSDS_OMM_VERS = 2.0
CREATION_DATE  = 
ORIGINATOR     = 

OBJECT_NAME    = STARLINK-36835
OBJECT_ID      = 2026-034P
CENTER_NAME    = EARTH
REF_FRAME      = TEME
TIME_SYSTEM    = UTC
MEAN_ELEMENT_THEORY = SGP/SGP4

EPOCH          = 2026-03-10T11:31:55.917984
MEAN_MOTION    = 15.80969387
ECCENTRICITY   = .000104
INCLINATION    = 53.1583
RA_OF_ASC_NODE = 207.2783
ARG_OF_PERICENTER = 64.7783
MEAN_ANOMALY   = 295.3347

EPHEMERIS_TYPE = 0
CLASSIFICATION_TYPE = U
NORAD_CAT_ID   = 67863
ELEMENT_SET_NO = 999
REV_AT_EPOCH   = 406
BSTAR          = .12211E-2
MEAN_MOTION_DOT = .248479E-2
MEAN_MOTION_DDOT = 0

CCSDS_OMM_VERS = 2.0
CREATION_DATE  = 
ORIGINATOR     = 

OBJECT_NAME    = STARLINK-36831
OBJECT_ID      = 2026-034Q
CENTER_NAME    = EARTH
REF_FRAME      = TEME
TIME_SYSTEM    = UTC
MEAN_ELEMENT_THEORY = SGP/SGP4

EPOCH          = 2026-03-10T11:30:51.075648
MEAN_MOTION    = 15.80973794
ECCENTRICITY   = .0001464
INCLINATION    = 53.1583
RA_OF_ASC_NODE = 207.2738
ARG_OF_PERICENTER = 57.8044
MEAN_ANOMALY   = 302.3120

EPHEMERIS_TYPE = 0
CLASSIFICATION_TYPE = U
NORAD_CAT_ID   = 67864
ELEMENT_SET_NO = 999
REV_AT_EPOCH   = 406
BSTAR          = .12363E-2
MEAN_MOTION_DOT = .251717E-2
MEAN_MOTION_DDOT = 0

CCSDS_OMM_VERS = 2.0
CREATION_DATE  = 
ORIGINATOR     = 

OBJECT_NAME    = STARLINK-36738
OBJECT_ID      = 2026-034R
CENTER_NAME    = EARTH
REF_FRAME      = TEME
TIME_SYSTEM    = UTC
MEAN_ELEMENT_THEORY = SGP/SGP4

EPOCH          = 2026-03-10T11:29:46.173696
MEAN_MOTION    = 15.80964285
ECCENTRICITY   = .0001397
INCLINATION    = 53.1582
RA_OF_ASC_NODE = 207.2681
ARG_OF_PERICENTER = 113.5457
MEAN_ANOMALY   = 246.5712

EPHEMERIS_TYPE = 0
CLASSIFICATION_TYPE = U
NORAD_CAT_ID   = 67865
ELEMENT_SET_NO = 999
REV_AT_EPOCH   = 406
BSTAR          = .11363E-2
MEAN_MOTION_DOT = .230628E-2
MEAN_MOTION_DDOT = 0

CCSDS_OMM_VERS = 2.0
CREATION_DATE  = 
ORIGINATOR     = 

OBJECT_NAME    = STARLINK-36780
OBJECT_ID      = 2026-034S
CENTER_NAME    = EARTH
REF_FRAME      = TEME
TIME_SYSTEM    = UTC
MEAN_ELEMENT_THEORY = SGP/SGP4

EPOCH          = 2026-03-10T11:28:41.435040
MEAN_MOTION    = 15.80965689
ECCENTRICITY   = .0001178
INCLINATION    = 53.1587
RA_OF_ASC_NODE = 207.2622
ARG_OF_PERICENTER = 350.2895
MEAN_ANOMALY   = 9.8105

EPHEMERIS_TYPE = 0
CLASSIFICATION_TYPE = U
NORAD_CAT_ID   = 67866
ELEMENT_SET_NO = 999
REV_AT_EPOCH   = 406
BSTAR          = .90988E-3
MEAN_MOTION_DOT = .183531E-2
MEAN_MOTION_DDOT = 0

CCSDS_OMM_VERS = 2.0
CREATION_DATE  = 
ORIGINATOR     = 

OBJECT_NAME    = STARLINK-36761
OBJECT_ID      = 2026-034T
CENTER_NAME    = EARTH
REF_FRAME      = TEME
TIME_SYSTEM    = UTC
MEAN_ELEMENT_THEORY = SGP/SGP4

EPOCH          = 2026-03-10T11:27:36.334368
MEAN_MOTION    = 15.80883195
ECCENTRICITY   = .0001149
INCLINATION    = 53.1590
RA_OF_ASC_NODE = 207.2574
ARG_OF_PERICENTER = 321.7092
MEAN_ANOMALY   = 38.3849

EPHEMERIS_TYPE = 0
CLASSIFICATION_TYPE = U
NORAD_CAT_ID   = 67867
ELEMENT_SET_NO = 999
REV_AT_EPOCH   = 406
BSTAR          = .12813E-2
MEAN_MOTION_DOT = .260083E-2
MEAN_MOTION_DDOT = 0

CCSDS_OMM_VERS = 2.0
CREATION_DATE  = 
ORIGINATOR     = 

OBJECT_NAME    = STARLINK-36762
OBJECT_ID      = 2026-034U
CENTER_NAME    = EARTH
REF_FRAME      = TEME
TIME_SYSTEM    = UTC
MEAN_ELEMENT_THEORY = SGP/SGP4

EPOCH          = 2026-03-10T11:26:31.422048
MEAN_MOTION    = 15.80901004
ECCENTRICITY   = .0000786
INCLINATION    = 53.1584
RA_OF_ASC_NODE = 207.2523
ARG_OF_PERICENTER = 344.7699
MEAN_ANOMALY   = 15.3299

EPHEMERIS_TYPE = 0
CLASSIFICATION_TYPE = U
NORAD_CAT_ID   = 67868
ELEMENT_SET_NO = 999
REV_AT_EPOCH   = 406
BSTAR          = .15255E-2
MEAN_MOTION_DOT = .311931E-2
MEAN_MOTION_DDOT = 0

CCSDS_OMM_VERS = 2.0
CREATION_DATE  = 
ORIGINATOR     = 

OBJECT_NAME    = STARLINK-36779
OBJECT_ID      = 2026-034V
CENTER_NAME    = EARTH
REF_FRAME      = TEME
TIME_SYSTEM    = UTC
MEAN_ELEMENT_THEORY = SGP/SGP4

EPOCH          = 2026-03-10T12:56:29.623200
MEAN_MOTION    = 15.80977836
ECCENTRICITY   = .0002323
INCLINATION    = 53.1586
RA_OF_ASC_NODE = 206.9308
ARG_OF_PERICENTER = 5.7374
MEAN_ANOMALY   = 354.3675

EPHEMERIS_TYPE = 0
CLASSIFICATION_TYPE = U
NORAD_CAT_ID   = 67869
ELEMENT_SET_NO = 999
REV_AT_EPOCH   = 407
BSTAR          = .17715E-2
MEAN_MOTION_DOT = .365928E-2
MEAN_MOTION_DDOT = 0

CCSDS_OMM_VERS = 2.0
CREATION_DATE  = 
ORIGINATOR     = 

OBJECT_NAME    = STARLINK-36770
OBJECT_ID      = 2026-034W
CENTER_NAME    = EARTH
REF_FRAME      = TEME
TIME_SYSTEM    = UTC
MEAN_ELEMENT_THEORY = SGP/SGP4

EPOCH          = 2026-03-10T09:52:14.838240
MEAN_MOTION    = 15.80987234
ECCENTRICITY   = .0001236
INCLINATION    = 53.1591
RA_OF_ASC_NODE = 207.5529
ARG_OF_PERICENTER = 65.3389
MEAN_ANOMALY   = 294.7762

EPHEMERIS_TYPE = 0
CLASSIFICATION_TYPE = U
NORAD_CAT_ID   = 67870
ELEMENT_SET_NO = 999
REV_AT_EPOCH   = 405
BSTAR          = .13925E-2
MEAN_MOTION_DOT = .284898E-2
MEAN_MOTION_DDOT = 0

CCSDS_OMM_VERS = 2.0
CREATION_DATE  = 
ORIGINATOR     = 

OBJECT_NAME    = STARLINK-36769
OBJECT_ID      = 2026-034X
CENTER_NAME    = EARTH
REF_FRAME      = TEME
TIME_SYSTEM    = UTC
MEAN_ELEMENT_THEORY = SGP/SGP4

EPOCH          = 2026-03-10T11:24:21.777120
MEAN_MOTION    = 15.80877282
ECCENTRICITY   = .0002018
INCLINATION    = 53.1594
RA_OF_ASC_NODE = 207.2424
ARG_OF_PERICENTER = 324.9315
MEAN_ANOMALY   = 35.1574

EPHEMERIS_TYPE = 0
CLASSIFICATION_TYPE = U
NORAD_CAT_ID   = 67871
ELEMENT_SET_NO = 999
REV_AT_EPOCH   = 406
BSTAR          = .12882E-2
MEAN_MOTION_DOT = .261459E-2
MEAN_MOTION_DDOT = 0

CCSDS_OMM_VERS = 2.0
CREATION_DATE  = 
ORIGINATOR     = 

OBJECT_NAME    = STARLINK-36786
OBJECT_ID      = 2026-034Y
CENTER_NAME    = EARTH
REF_FRAME      = TEME
TIME_SYSTEM    = UTC
MEAN_ELEMENT_THEORY = SGP/SGP4

EPOCH          = 2026-03-10T12:53:14.709984
MEAN_MOTION    = 15.80970132
ECCENTRICITY   = .0000636
INCLINATION    = 53.1589
RA_OF_ASC_NODE = 206.9153
ARG_OF_PERICENTER = 48.8520
MEAN_ANOMALY   = 311.2558

EPHEMERIS_TYPE = 0
CLASSIFICATION_TYPE = U
NORAD_CAT_ID   = 67872
ELEMENT_SET_NO = 999
REV_AT_EPOCH   = 407
BSTAR          = .12777E-2
MEAN_MOTION_DOT = .260398E-2
MEAN_MOTION_DDOT = 0

CCSDS_OMM_VERS = 2.0
CREATION_DATE  = 
ORIGINATOR     = 

OBJECT_NAME    = STARLINK-36783
OBJECT_ID      = 2026-034Z
CENTER_NAME    = EARTH
REF_FRAME      = TEME
TIME_SYSTEM    = UTC
MEAN_ELEMENT_THEORY = SGP/SGP4

EPOCH          = 2026-03-10T12:52:09.910848
MEAN_MOTION    = 15.80980956
ECCENTRICITY   = .0000914
INCLINATION    = 53.1590
RA_OF_ASC_NODE = 206.9092
ARG_OF_PERICENTER = 85.6638
MEAN_ANOMALY   = 274.4489

EPHEMERIS_TYPE = 0
CLASSIFICATION_TYPE = U
NORAD_CAT_ID   = 67873
ELEMENT_SET_NO = 999
REV_AT_EPOCH   = 407
BSTAR          = .13673E-2
MEAN_MOTION_DOT = .279457E-2
MEAN_MOTION_DDOT = 0

