STARLINK-36332          
1 67862U 26034N   26069.54447698  .00262476  00000+0  12871-2 0  9991
2 67862  53.1579 206.9670 0000484  78.0933 282.0144 15.80978417  4079
STARLINK-36835          
1 67863U 26034P   26069.48050831  .00248479  00000+0  12211-2 0  9999
2 67863  53.1583 207.2783 0001040  64.7783 295.3347 15.80969387  4065
STARLINK-36831          
1 67864U 26034Q   26069.47975782  .00251717  00000+0  12363-2 0  9997
2 67864  53.1583 207.2738 0001464  57.8044 302.3120 15.80973794  4064
STARLINK-36738          
1 67865U 26034R   26069.47900664  .00230628  00000+0  11363-2 0  9992
2 67865  53.1582 207.2681 0001397 113.5457 246.5712 15.80964285  4065
STARLINK-36780          
1 67866U 26034S   26069.47825735  .00183531  00000+0  90988-3 0  9999
2 67866  53.1587 207.2622 0001178 350.2895   9.8105 15.80965689  4064
STARLINK-36761          
1 67867U 26034T   26069.47750387  .00260083  00000+0  12813-2 0  9998
2 67867  53.1590 207.2574 0001149 321.7092  38.3849 15.80883195  4068
STARLINK-36762          
1 67868U 26034U   26069.47675257  .00311931  00000+0  15255-2 0  9993
2 67868  53.1584 207.2523 0000786 344.7699  15.3299 15.80901004  4064
STARLINK-36779          
1 67869U 26034V   26069.53923175  .00365928  00000+0  17715-2 0  9994
2 67869  53.1586 206.9308 0002323   5.7374 354.3675 15.80977836  4078
STARLINK-36770          
1 67870U 26034W   26069.41128285  .00284898  00000+0  13925-2 0  9997
2 67870  53.1591 207.5529 0001236  65.3389 294.7762 15.80987234  4053
STARLINK-36769          
1 67871U 26034X   26069.47525205  .00261459  00000+0  12882-2 0  9996
2 67871  53.1594 207.2424 0002018 324.9315  35.1574 15.80877282  4060
STARLINK-36786          
1 67872U 26034Y   26069.53697581  .00260398  00000+0  12777-2 0  9995
2 67872  53.1589 206.9153 0000636  48.8520 311.2558 15.80970132  4073
STARLINK-36783          
1 67873U 26034Z   26069.53622582  .00279457  00000+0  13673-2 0  9997
2 67873  53.1590 206.9092 0000914  85.6638 274.4489 15.80980956  4074
